OBJECT_NAME,OBJECT_ID,EPOCH,MEAN_MOTION,ECCENTRICITY,INCLINATION,RA_OF_ASC_NODE,ARG_OF_PERICENTER,MEAN_ANOMALY,EPHEMERIS_TYPE,CLASSIFICATION_TYPE,NORAD_CAT_ID,ELEMENT_SET_NO,REV_AT_EPOCH,BSTAR,MEAN_MOTION_DOT,MEAN_MOTION_DDOT
ONEWEB-0068,2020-020Y,2026-07-05T12:58:50.816352,13.11414045,.0001635,87.8885,17.4102,87.0394,273.0921,0,U,45446,999,30500,-.2058E-3,-.6E-6,0
ONEWEB-0046,2020-020Z,2026-07-05T10:56:58.176096,13.11415212,.0001772,87.8878,17.4317,80.0561,280.0767,0,U,45447,999,30500,.70335E-3,.262E-5,0
ONEWEB-0063,2020-020AA,2026-07-05T11:38:39.604704,13.11416633,.0002043,87.8890,17.4264,82.0440,278.0920,0,U,45448,999,30509,-.14853E-2,-.514E-5,0
ONEWEB-0019,2020-020AB,2026-07-05T01:35:10.112064,13.11450468,.0002064,87.8900,17.4928,102.5904,257.5455,0,U,45449,999,30488,.12357E-1,.4396E-4,0
ONEWEB-0094,2020-020AC,2026-07-04T23:19:41.847168,13.17648919,.0001707,87.9144,2.3119,95.6791,264.4536,0,U,45450,999,30865,-.11796E-3,-.33E-6,0
ONEWEB-0087,2020-020AD,2026-07-05T11:52:54.905088,13.11417515,.0001523,87.8900,17.4001,87.7612,272.3690,0,U,45451,999,30498,-.6738E-3,-.226E-5,0
ONEWEB-0082,2020-020AE,2026-07-05T11:48:01.995264,13.11417643,.0001477,87.8890,17.4157,77.7961,282.3332,0,U,45452,999,30507,-.10517E-2,-.36E-5,0
ONEWEB-0050,2020-020AF,2026-07-05T03:16:12.436320,14.90452129,.0000495,88.9281,230.7734,244.3373,115.7805,0,U,45453,999,34305,.32564E-3,.3194E-4,0
ONEWEB-0034,2020-020AG,2026-07-05T10:52:17.928192,13.11414800,.0001826,87.8887,17.4328,87.9587,272.1750,0,U,45454,999,30498,.1079E-2,.395E-5,0
ONEWEB-0060,2020-020AH,2026-07-05T11:37:14.587104,13.11416333,.0000848,87.8879,17.4232,99.9595,260.1629,0,U,45455,999,30494,-.14721E-2,-.509E-5,0
ONEWEB-0088,2020-020AK,2026-07-05T01:25:39.497952,13.11416201,.0001937,87.8896,17.4785,75.8790,284.2553,0,U,45457,999,30488,.14947E-2,.542E-5,0
ONEWEB-0102,2020-100A,2026-07-05T10:20:29.043744,13.12442872,.0001866,87.8952,347.0462,103.3222,256.8115,0,U,47258,999,26712,.11078E-2,.411E-5,0
ONEWEB-0109,2020-100B,2026-07-05T10:32:40.940736,13.12442438,.0001949,87.8963,347.0294,97.1906,262.9444,0,U,47259,999,26695,.12174E-2,.451E-5,0
ONEWEB-0110,2020-100C,2026-07-05T00:13:01.400736,13.12442786,.0001639,87.8960,347.0991,102.0307,258.1005,0,U,47260,999,26706,-.10961E-2,-.382E-5,0
ONEWEB-0111,2020-100D,2026-07-04T21:17:22.428096,13.12443528,.0001727,87.8960,347.1421,93.9207,266.2119,0,U,47261,999,26688,.67299E-3,.255E-5,0
ONEWEB-0114,2020-100E,2026-07-05T10:49:44.760864,13.12441049,.0002037,87.8963,347.0279,96.6163,263.5198,0,U,47262,999,26691,.55586E-3,.213E-5,0
ONEWEB-0117,2020-100F,2026-07-05T10:37:33.104064,13.12441483,.0001816,87.8960,347.0198,95.5928,264.5408,0,U,47263,999,26692,.10922E-2,.406E-5,0
ONEWEB-0118,2020-100G,2026-07-05T09:36:32.908896,13.12442189,.0002082,87.8960,347.0311,87.8603,272.2764,0,U,47264,999,26711,-.12256E-2,-.428E-5,0
ONEWEB-0119,2020-100H,2026-07-05T10:13:09.610752,13.12442858,.00018665,87.8949,347.0410,94.3934,265.7408,0,U,47265,999,26709,.85319419E-3,.32E-5,0
ONEWEB-0120,2020-100J,2026-07-05T08:57:43.322976,13.12440523,.00019956,87.8950,347.0527,96.7319,263.4037,0,U,47266,999,26711,.54844967E-3,.21E-5,0
ONEWEB-0121,2020-100K,2026-07-05T10:30:13.882752,13.12441867,.00015203,87.8961,347.0275,90.1169,270.0134,0,U,47267,999,26703,.12403609E-2,.459E-5,0
ONEWEB-0122,2020-100L,2026-07-05T10:21:41.667264,13.12444147,.00018848,87.8963,347.0339,99.2432,260.8910,0,U,47268,999,26694,.10848233E-2,.403E-5,0
ONEWEB-0123,2020-100M,2026-07-05T10:15:35.684640,13.12442630,.00019015,87.8949,347.0398,91.4944,268.6402,0,U,47269,999,26708,.93427909E-3,.349E-5,0
ONEWEB-0124,2020-100N,2026-07-04T23:02:15.914688,13.12443417,.00017497,87.8947,347.1355,92.7314,267.4015,0,U,47270,999,26690,.27198342E-3,.111E-5,0
ONEWEB-0125,2020-100P,2026-07-05T09:29:13.885440,13.12442233,.00017194,87.8961,347.0343,84.7950,275.3375,0,U,47271,999,26702,-.11106052E-2,-.387E-5,0
ONEWEB-0126,2020-100Q,2026-07-04T23:00:02.277216,13.12443207,.00019687,87.8954,347.1357,94.9968,265.1385,0,U,47272,999,26703,.12155432E-3,.56E-6,0
ONEWEB-0127,2020-100R,2026-07-05T09:09:43.454880,13.12441375,.00019463,87.8949,347.0493,96.4412,263.6938,0,U,47273,999,26711,-.29668775E-3,-.94E-6,0
ONEWEB-0128,2020-100S,2026-07-05T09:41:25.947456,13.12443468,.00016282,87.8949,347.0590,102.3944,257.7367,0,U,47274,999,26713,-.12003912E-2,-.419E-5,0
ONEWEB-0129,2020-100T,2026-07-05T11:01:56.251776,13.12440875,.0002912,87.8960,347.0232,102.0159,258.1296,0,U,47275,999,26707,-.36102942E-3,-.117E-5,0
