ONEWEB-0068             
1 45446U 20020Y   26186.54086593 -.00000060  00000+0 -20580-3 0  9995
2 45446  87.8885  17.4102 0001635  87.0394 273.0921 13.11414045305006
ONEWEB-0046             
1 45447U 20020Z   26186.45622890  .00000262  00000+0  70335-3 0  9997
2 45447  87.8878  17.4317 0001772  80.0561 280.0767 13.11415212305001
ONEWEB-0063             
1 45448U 20020AA  26186.48518062 -.00000514  00000+0 -14853-2 0  9990
2 45448  87.8890  17.4264 0002043  82.0440 278.0920 13.11416633305092
ONEWEB-0019             
1 45449U 20020AB  26186.06608927  .00004396  00000+0  12357-1 0  9991
2 45449  87.8900  17.4928 0002064 102.5904 257.5455 13.11450468304883
ONEWEB-0094             
1 45450U 20020AC  26185.97201212 -.00000033  00000+0 -11796-3 0  9992
2 45450  87.9144   2.3119 0001707  95.6791 264.4536 13.17648919308652
ONEWEB-0087             
1 45451U 20020AD  26186.49507992 -.00000226  00000+0 -67380-3 0  9999
2 45451  87.8900  17.4001 0001523  87.7612 272.3690 13.11417515304980
ONEWEB-0082             
1 45452U 20020AE  26186.49168976 -.00000360  00000+0 -10517-2 0  9993
2 45452  87.8890  17.4157 0001476  77.7961 282.3332 13.11417643305071
ONEWEB-0050             
1 45453U 20020AF  26186.13625505  .00003194  00000+0  32564-3 0  9994
2 45453  88.9281 230.7734 0000495 244.3373 115.7805 14.90452129343058
ONEWEB-0034             
1 45454U 20020AG  26186.45298528  .00000395  00000+0  10790-2 0  9997
2 45454  87.8887  17.4328 0001825  87.9587 272.1750 13.11414800304986
ONEWEB-0060             
1 45455U 20020AH  26186.48419662 -.00000509  00000+0 -14721-2 0  9992
2 45455  87.8879  17.4232 0000847  99.9595 260.1629 13.11416333304948
ONEWEB-0088             
1 45457U 20020AK  26186.05948494  .00000542  00000+0  14947-2 0  9992
2 45457  87.8896  17.4785 0001937  75.8790 284.2553 13.11416201304883
ONEWEB-0102             
1 47258U 20100A   26186.43089172  .00000411  00000+0  11078-2 0  9990
2 47258  87.8952 347.0462 0001866 103.3222 256.8115 13.12442872267127
ONEWEB-0109             
1 47259U 20100B   26186.43936275  .00000451  00000+0  12174-2 0  9998
2 47259  87.8963 347.0294 0001948  97.1906 262.9444 13.12442438266954
ONEWEB-0110             
1 47260U 20100C   26186.00904400 -.00000382  00000+0 -10961-2 0  9995
2 47260  87.8960 347.0991 0001639 102.0307 258.1005 13.12442786267064
ONEWEB-0111             
1 47261U 20100D   26185.88706514  .00000255  00000+0  67299-3 0  9991
2 47261  87.8960 347.1421 0001726  93.9207 266.2119 13.12443528266888
ONEWEB-0114             
1 47262U 20100E   26186.45121252  .00000213  00000+0  55586-3 0  9996
2 47262  87.8963 347.0279 0002036  96.6163 263.5198 13.12441049266915
ONEWEB-0117             
1 47263U 20100F   26186.44274426  .00000406  00000+0  10922-2 0  9996
2 47263  87.8960 347.0198 0001816  95.5928 264.5408 13.12441483266923
ONEWEB-0118             
1 47264U 20100G   26186.40038090 -.00000428  00000+0 -12256-2 0  9996
2 47264  87.8960 347.0311 0002082  87.8603 272.2764 13.12442189267118
ONEWEB-0119             
1 47265U 20100H   26186.42580568  .00000320  00000+0  85319-3 0  9991
2 47265  87.8949 347.0410 0001866  94.3934 265.7408 13.12442858267097
ONEWEB-0120             
1 47266U 20100J   26186.37341809  .00000210  00000+0  54845-3 0  9997
2 47266  87.8950 347.0527 0001995  96.7319 263.4037 13.12440523267118
ONEWEB-0121             
1 47267U 20100K   26186.43766068  .00000459  00000+0  12404-2 0  9992
2 47267  87.8961 347.0275 0001520  90.1169 270.0134 13.12441867267031
ONEWEB-0122             
1 47268U 20100L   26186.43173226  .00000403  00000+0  10848-2 0  9990
2 47268  87.8963 347.0339 0001884  99.2432 260.8910 13.12444147266943
ONEWEB-0123             
1 47269U 20100M   26186.42749635  .00000349  00000+0  93428-3 0  9998
2 47269  87.8949 347.0398 0001901  91.4944 268.6402 13.12442630267088
ONEWEB-0124             
1 47270U 20100N   26185.95990642  .00000111  00000+0  27198-3 0  9991
2 47270  87.8947 347.1355 0001749  92.7314 267.4015 13.12443417266908
ONEWEB-0125             
1 47271U 20100P   26186.39529960 -.00000387  00000+0 -11106-2 0  9990
2 47271  87.8961 347.0343 0001719  84.7950 275.3375 13.12442233267021
ONEWEB-0126             
1 47272U 20100Q   26185.95835969  .00000056  00000+0  12155-3 0  9998
2 47272  87.8954 347.1357 0001968  94.9968 265.1385 13.12443207267039
ONEWEB-0127             
1 47273U 20100R   26186.38175295 -.00000094  00000+0 -29669-3 0  9998
2 47273  87.8949 347.0493 0001946  96.4412 263.6938 13.12441375267111
ONEWEB-0128             
1 47274U 20100S   26186.40377254 -.00000419  00000+0 -12004-2 0  9996
2 47274  87.8949 347.0590 0001628 102.3944 257.7367 13.12443468267131
ONEWEB-0129             
1 47275U 20100T   26186.45967884 -.00000117  00000+0 -36103-3 0  9998
2 47275  87.8960 347.0232 0002912 102.0159 258.1296 13.12440875267078
